NIMIQ 2                 
1 27632U 02062A   26116.90012748 -.00000076  00000+0  00000+0 0  9999
2 27632   9.3310  57.4351 0006387 334.5732  37.7739  1.00273037 43673
ANIK F2                 
1 28378U 04027A   26117.20962398 -.00000057  00000+0  00000+0 0  9998
2 28378   3.1565  80.1053 0004394 333.5472 125.8797  1.00271671 40754
ANIK F1R                
1 28868U 05036A   26117.14226545 -.00000082  00000+0  00000+0 0  9991
2 28868   4.1843  77.1946 0003472 332.5153 109.3617  1.00272273 45949
ANIK F3                 
1 31102U 07009A   26117.15739148 -.00000010  00000+0  00000+0 0  9998
2 31102   1.0672  84.3926 0002749 310.8476 117.8583  1.00272472 46051
NIMIQ 4                 
1 33373U 08044A   26117.22899178 -.00000230  00000+0  00000+0 0  9992
2 33373   0.0156 139.5409 0002211 252.7411 183.3927  1.00271192 64479
TELSTAR 11N             
1 34111U 09009A   26117.06294917  .00000000  00000+0  00000+0 0  9991
2 34111   0.0137 236.2153 0002366 151.4914 172.4583  1.00268487 45732
TERRESTAR-1             
1 35496U 09035A   26117.20962398 -.00000063  00000+0  00000+0 0  9998
2 35496   5.1524  48.8063 0002889 345.5596 145.2822  1.00270077 61622
NIMIQ 5                 
1 35873U 09050A   26116.98933904  .00000000  00000+0  00000+0 0  9999
2 35873   0.0225 104.1145 0003097 302.6404  91.6944  1.00268560 60839
SKYTERRA 1              
1 37218U 10061A   26116.90177416 -.00000126  00000+0  00000+0 0  9998
2 37218   5.0192  50.8827 0003152  24.4912   2.8266  1.00271782 56680
TELSTAR 14R             
1 37602U 11021A   26117.05196808 -.00000290  00000+0  00000+0 0  9997
2 37602   0.0212 258.0608 0002327 131.0793 141.5990  1.00272150 55324
NIMIQ 6                 
1 38342U 12026A   26117.20253023 -.00000184  00000+0  00000+0 0  9997
2 38342   0.0655  77.0089 0002569 314.1960 165.7984  1.00271824 49902
ANIK G1                 
1 39127U 13014A   26117.28838005  .00000000  00000+0  00000+0 0  9990
2 39127   0.0242 102.8968 0002210 277.3086 191.5881  1.00269445 47740
TELSTAR 12V             
1 41036U 15068A   26117.22822620 -.00000129  00000+0  00000+0 0  9996
2 41036   0.0071 195.1175 0002483 197.6947 249.5700  1.00271736 38110
VIASAT-2                
1 42740U 17029A   26117.19141821 -.00000275  00000+0  00000+0 0  9993
2 42740   0.0175 268.4377 0000278 105.8832 199.8770  1.00271610 32692
LEO 1 (LEO VANTAGE 1)   
1 43113U 18004C   26117.25426013  .00002271  00000+0  16294-3 0  9991
2 43113  99.2447  28.9018 0350184 235.6851 121.0748 14.67567999430012
TELSTAR 19V             
1 43562U 18059A   26117.18586347 -.00000290  00000+0  00000+0 0  9992
2 43562   0.0202 183.2740 0001747 263.6152 132.1896  1.00270633 28636
TELSTAR 18V             
1 43611U 18069A   26117.22683675 -.00000304  00000+0  00000+0 0  9991
2 43611   0.0137 266.3051 0002045 119.3408  49.2363  1.00271858 28120
AMOS-17                 
1 44479U 19050A   26117.21711356  .00000099  00000+0  00000+0 0  9992
2 44479   0.0154 329.6214 0001409  68.1223 272.6242  1.00269569 24675
